NORAD_CAT_ID,OBJECT_NAME,OBJECT_TYPE,EPOCH,MEAN_MOTION,ECCENTRICITY,INCLINATION,RA_OF_ASC_NODE,ARG_OF_PERICENTER,MEAN_ANOMALY,BSTAR,MEAN_MOTION_DOT,MEAN_MOTION_DDOT,TLE_LINE0,TLE_LINE1,TLE_LINE2,SEMIMAJOR_AXIS,PERIOD,APOGEE,PERIGEE,DECAYED
52557.0,STARLINK-3943,PAYLOAD,2023-04-18 09:17:18,15.08843321,0.0001511,53.2166,191.0396,107.4103,252.7054,0.00040016,6.087e-05,0.0,0 STARLINK-3943,1 52557U 22051AA  23108.38702374  .00006087  00000-0  40016-3 0  9997,2 52557  53.2166 191.0396 0001511 107.4103 252.7054 15.08843321 51985,6917.87,95.437,540.781,538.69,0.0
52557.0,STARLINK-3943,PAYLOAD,2023-04-18 15:38:51,15.08855928,0.0001317,53.2163,189.8527,91.3084,268.8059,0.00092477,0.00014467,0.0,0 STARLINK-3943,1 52557U 22051AA  23108.65198117  .00014467  00000-0  92477-3 0  9990,2 52557  53.2163 189.8527 0001317  91.3084 268.8059 15.08855928 52021,6917.832,95.437,540.608,538.786,0.0
52557.0,STARLINK-3943,PAYLOAD,2023-04-19 05:57:19,15.088398,0.0001138,53.2164,187.1739,100.3733,259.7387,0.00015591,2.194e-05,0.0,0 STARLINK-3943,1 52557U 22051AA  23109.24814406  .00002194  00000-0  15591-3 0  9998,2 52557  53.2164 187.1739 0001138 100.3733 259.7387 15.08839800 52182,6917.881,95.438,540.533,538.959,0.0
52557.0,STARLINK-3943,PAYLOAD,2023-04-19 13:54:15,15.08848768,0.0001178,53.2162,185.6872,99.2112,260.9013,0.00037466,5.681e-05,0.0,0 STARLINK-3943,1 52557U 22051AA  23109.57934180  .00005681  00000-0  37466-3 0  9995,2 52557  53.2162 185.6872 0001178  99.2112 260.9013 15.08848768 52163,6917.854,95.437,540.534,538.904,0.0
52557.0,STARLINK-3943,PAYLOAD,2023-04-20 08:58:53,15.08828745,0.0001478,53.2146,182.1222,95.4294,264.6867,-9.8876e-05,-1.861e-05,0.0,0 STARLINK-3943,1 52557U 22051AA  23110.37422734 -.00001861  00000-0 -98876-4 0  9993,2 52557  53.2146 182.1222 0001478  95.4294 264.6867 15.08828745 52282,6917.915,95.438,540.802,538.757,0.0
52557.0,STARLINK-3943,PAYLOAD,2023-04-20 12:09:39,15.08833668,0.0001444,53.2153,181.5275,85.5759,274.5399,5.083e-06,-2.07e-06,0.0,0 STARLINK-3943,1 52557U 22051AA  23110.50670809 -.00000207  00000-0  50830-5 0  9997,2 52557  53.2153 181.5275 0001444  85.5759 274.5399 15.08833668 52303,6917.9,95.438,540.764,538.766,0.0
52557.0,STARLINK-3943,PAYLOAD,2023-04-21 08:49:40,15.08833543,0.0001448,53.2149,177.6627,82.9327,277.1829,0.00023204,3.406e-05,0.0,0 STARLINK-3943,1 52557U 22051AA  23111.36783467  .00003406  00000-0  23204-3 0  9993,2 52557  53.2149 177.6627 0001448  82.9327 277.1829 15.08833543 52434,6917.9,95.438,540.767,538.763,0.0
52557.0,STARLINK-3943,PAYLOAD,2023-04-21 13:35:50,15.08842459,0.0001405,53.2149,176.7701,86.8006,273.3147,0.00034328,5.18e-05,0.0,0 STARLINK-3943,1 52557U 22051AA  23111.56655255  .00005180  00000-0  34328-3 0  9998,2 52557  53.2149 176.7701 0001405  86.8006 273.3147 15.08842459 52535,6917.873,95.437,540.71,538.766,0.0
52557.0,STARLINK-3943,PAYLOAD,2023-04-21 21:32:46,15.08839582,0.0001423,53.2138,175.2817,79.562,280.5532,0.0003179,4.775e-05,0.0,0 STARLINK-3943,1 52557U 22051AA  23111.89775486  .00004775  00000-0  31790-3 0  9992,2 52557  53.2138 175.2817 0001423  79.5620 280.5532 15.08839582 52515,6917.882,95.438,540.731,538.762,0.0
52557.0,STARLINK-3943,PAYLOAD,2023-04-22 21:23:32,15.08846116,0.000158,53.2146,170.8224,74.4629,285.6538,0.0002498,3.69e-05,0.0,0 STARLINK-3943,1 52557U 22051AA  23112.89135243  .00003690  00000-0  24980-3 0  9992,2 52557  53.2146 170.8224 0001580  74.4629 285.6538 15.08846116 52663,6917.862,95.437,540.82,538.634,0.0
52557.0,STARLINK-3943,PAYLOAD,2023-04-23 11:42:01,15.08834472,0.0001633,53.2147,168.1465,74.1248,285.9924,3.2768e-05,2.33e-06,0.0,0 STARLINK-3943,1 52557U 22051AA  23113.48751797  .00000233  00000-0  32768-4 0  9990,2 52557  53.2147 168.1465 0001633  74.1248 285.9924 15.08834472 52758,6917.897,95.438,540.892,538.633,0.0
52557.0,STARLINK-3943,PAYLOAD,2023-04-24 11:32:46,15.08871166,0.0001478,53.2153,163.6839,92.9267,267.1894,0.00045786,7.013e-05,0.0,0 STARLINK-3943,1 52557U 22051AA  23114.48109714  .00007013  00000-0  45786-3 0  9993,2 52557  53.2153 163.6839 0001478  92.9267 267.1894 15.08871166 52979,6917.785,95.436,540.673,538.628,0.0
52557.0,STARLINK-3943,PAYLOAD,2023-04-25 09:48:12,15.08824159,0.0001137,53.2151,159.5217,98.3351,261.777,-0.00030138,-5.079e-05,0.0,0 STARLINK-3943,1 52557U 22051AA  23115.40847377 -.00005079  00000-0 -30138-3 0  9997,2 52557  53.2151 159.5217 0001137  98.3351 261.7770 15.08824159 53117,6917.929,95.439,540.58,539.007,0.0
52557.0,STARLINK-3943,PAYLOAD,2023-04-26 08:03:37,15.08812822,0.0001112,53.2161,155.362,79.862,280.2498,4.4201e-05,4.15e-06,0.0,0 STARLINK-3943,1 52557U 22051AA  23116.33585442  .00000415  00000-0  44201-4 0  9996,2 52557  53.2161 155.3620 0001112  79.8620 280.2498 15.08812822 53180,6917.963,95.439,540.598,539.059,0.0
52557.0,STARLINK-3943,PAYLOAD,2023-04-26 19:11:19,15.08823931,0.0001234,53.2165,153.2779,107.9137,252.199,0.00011116,1.481e-05,0.0,0 STARLINK-3943,1 52557U 22051AA  23116.79953089  .00001481  00000-0  11116-3 0  9994,2 52557  53.2165 153.2779 0001234 107.9137 252.1990 15.08823931 53253,6917.93,95.439,540.648,538.941,0.0
52557.0,STARLINK-3943,PAYLOAD,2023-04-27 11:05:10,15.08832111,0.0001274,53.2167,150.302,98.0988,262.0149,0.00030382,4.55e-05,0.0,0 STARLINK-3943,1 52557U 22051AA  23117.46192986  .00004550  00000-0  30382-3 0  9996,2 52557  53.2167 150.3020 0001274  98.0988 262.0149 15.08832111 53357,6917.905,95.438,540.651,538.888,0.0
52557.0,STARLINK-3943,PAYLOAD,2023-04-28 06:09:47,15.08852796,0.0001174,53.2162,146.7345,101.3428,258.7697,0.00030708,4.604e-05,0.0,0 STARLINK-3943,1 52557U 22051AA  23118.25679900  .00004604  00000-0  30708-3 0  9992,2 52557  53.2162 146.7345 0001174 101.3428 258.7697 15.08852796 53549,6917.841,95.437,540.518,538.894,0.0
52557.0,STARLINK-3943,PAYLOAD,2023-04-28 09:20:33,15.08860082,0.0001242,53.2157,146.1398,98.2051,261.9082,0.00040309,6.137e-05,0.0,0 STARLINK-3943,1 52557U 22051AA  23118.38927774  .00006137  00000-0  40309-3 0  9992,2 52557  53.2157 146.1398 0001242  98.2051 261.9082 15.08860082 53492,6917.819,95.436,540.543,538.825,0.0
52557.0,STARLINK-3943,PAYLOAD,2023-04-29 09:11:20,15.08845011,0.000144,53.2154,141.681,91.2295,268.8862,-7.0612e-05,-1.412e-05,0.0,0 STARLINK-3943,1 52557U 22051AA  23119.38287908 -.00001412  00000-0 -70612-4 0  9995,2 52557  53.2154 141.6810 0001440  91.2295 268.8862 15.08845011 53645,6917.865,95.437,540.726,538.734,0.0
52557.0,STARLINK-3943,PAYLOAD,2023-04-30 10:37:30,15.08850233,0.0001608,53.2162,136.9221,95.3669,264.7507,-7.9291e-05,-1.55e-05,0.0,0 STARLINK-3943,1 52557U 22051AA  23120.44271700 -.00001550  00000-0 -79291-4 0  9992,2 52557  53.2162 136.9221 0001608  95.3669 264.7507 15.08850233 53871,6917.849,95.437,540.827,538.602,0.0
52557.0,STARLINK-3943,PAYLOAD,2023-05-01 10:28:17,15.08843013,0.0001476,53.2163,132.4603,96.3646,263.7514,0.00010472,1.379e-05,0.0,0 STARLINK-3943,1 52557U 22051AA  23121.43631545  .00001379  00000-0  10472-3 0  9991,2 52557  53.2163 132.4603 0001476  96.3646 263.7514 15.08843013 53950,6917.871,95.437,540.757,538.715,0.0
52557.0,STARLINK-3943,PAYLOAD,2023-05-02 07:08:18,15.08843035,0.0001486,53.2164,128.5948,95.3448,264.7713,9.5032e-05,1.225e-05,0.0,0 STARLINK-3943,1 52557U 22051AA  23122.29743616  .00001225  00000-0  95032-4 0  9995,2 52557  53.2164 128.5948 0001486  95.3448 264.7713 15.08843035 54158,6917.871,95.437,540.764,538.708,0.0
52557.0,STARLINK-3943,PAYLOAD,2023-05-02 10:19:04,15.08843803,0.0001471,53.2162,127.9999,94.7388,265.3772,9.9115e-05,1.29e-05,0.0,0 STARLINK-3943,1 52557U 22051AA  23122.42991534  .00001290  00000-0  99115-4 0  9992,2 52557  53.2162 127.9999 0001471  94.7388 265.3772 15.08843803 54105,6917.869,95.437,540.751,538.716,0.0
52557.0,STARLINK-3943,PAYLOAD,2023-05-03 05:23:42,15.08839242,0.0001415,53.2158,124.4306,93.5083,266.6071,2.151e-05,5.4e-07,0.0,0 STARLINK-3943,1 52557U 22051AA  23123.22480053  .00000054  00000-0  21510-4 0  9991,2 52557  53.2158 124.4306 0001415  93.5083 266.6071 15.08839242 54299,6917.883,95.438,540.727,538.769,0.0
52557.0,STARLINK-3943,PAYLOAD,2023-05-03 06:59:05,15.08840773,0.0001393,53.2158,124.1334,89.2171,270.898,3.1551e-05,2.14e-06,0.0,0 STARLINK-3943,1 52557U 22051AA  23123.29103925  .00000214  00000-0  31551-4 0  9992,2 52557  53.2158 124.1334 0001393  89.2171 270.8980 15.08840773 54233,6917.878,95.438,540.707,538.779,0.0
52557.0,STARLINK-3943,PAYLOAD,2023-05-04 06:49:52,15.08839997,0.0001365,53.2162,119.6747,93.0891,267.0258,3.1545e-05,2.14e-06,0.0,0 STARLINK-3943,1 52557U 22051AA  23124.28464041  .00000214  00000-0  31545-4 0  9994,2 52557  53.2162 119.6747 0001365  93.0891 267.0258 15.08839997 54452,6917.88,95.438,540.69,538.801,0.0
52557.0,STARLINK-3943,PAYLOAD,2023-05-04 17:57:35,15.08837156,0.0001355,53.2161,117.5926,91.6997,268.4151,5.1094e-05,5.25e-06,0.0,0 STARLINK-3943,1 52557U 22051AA  23124.74832233  .00000525  00000-0  51094-4 0  9993,2 52557  53.2161 117.5926 0001355  91.6997 268.4151 15.08837156 54459,6917.889,95.438,540.691,538.817,0.0
52557.0,STARLINK-3943,PAYLOAD,2023-05-05 08:16:03,15.08837601,0.0001322,53.2162,114.9172,93.6905,266.4238,6.2902e-05,7.13e-06,0.0,0 STARLINK-3943,1 52557U 22051AA  23125.34448353  .00000713  00000-0  62902-4 0  9995,2 52557  53.2162 114.9172 0001322  93.6905 266.4238 15.08837601 54616,6917.888,95.438,540.667,538.838,0.0
52557.0,STARLINK-3943,PAYLOAD,2023-05-05 16:12:59,15.08837005,0.0001306,53.2163,113.4303,92.2521,267.862,6.7331e-05,7.84e-06,0.0,0 STARLINK-3943,1 52557U 22051AA  23125.67568451  .00000784  00000-0  67331-4 0  9992,2 52557  53.2163 113.4303 0001306  92.2521 267.8620 15.08837005 54593,6917.89,95.438,540.658,538.851,0.0
52557.0,STARLINK-3943,PAYLOAD,2023-05-06 06:31:27,15.08841233,0.000131,53.2163,110.7542,91.0877,269.0265,7.3875e-05,8.88e-06,0.0,0 STARLINK-3943,1 52557U 22051AA  23126.27184380  .00000888  00000-0  73875-4 0  9999,2 52557  53.2163 110.7542 0001310  91.0877 269.0265 15.08841233 54681,6917.877,95.437,540.648,538.835,0.0
